COSMOS 2419 (714)       
1 28915U 05050A   16185.45486709 -.00000035  00000-0  00000+0 0  9997
2 28915  65.3302  77.6149 0016679 352.6280  25.7657  2.13110825 81908
COSMOS 2425 (716)       
1 29670U 06062A   16186.13803109 -.00000065  00000-0  10000-3 0  9991
2 29670  65.6264 316.5847 0020272 349.4833 250.3018  2.13104995 74112
COSMOS 2426 (717)       
1 29671U 06062B   16185.46212668 -.00000067  00000-0  10000-3 0  9993
2 29671  65.6442 316.6898 0018213 160.5875 141.4557  2.13102985 74102
COSMOS 2424 (715)       
1 29672U 06062C   16185.81209278 -.00000066  00000-0  10000-3 0  9995
2 29672  65.6282 316.6055 0017721 159.4861 227.3108  2.13102382 74113
COSMOS 2433 (720)       
1 32275U 07052A   16186.09562948 -.00000032  00000-0  10000-3 0  9998
2 32275  65.3450  77.3641 0002471 296.5125 102.7850  2.13104806 67636
COSMOS 2432 (719)       
1 32276U 07052B   16186.14341896 -.00000032  00000-0  10000-3 0  9992
2 32276  65.3562  77.4288 0012821 340.7550  48.9868  2.13104296 67636
COSMOS 2434 (721)       
1 32393U 07065A   16185.76263894 -.00000066  00000-0  00000+0 0  9996
2 32393  65.2443 315.9122 0005706 111.5536 284.1843  2.13102928 66335
COSMOS 2436 (723)       
1 32395U 07065C   16186.10609019 -.00000065  00000-0  10000-3 0  9994
2 32395  65.2576 315.9436 0016114 359.4159  31.8282  2.13102976 66271
COSMOS 2443 (725)       
1 33379U 08046B   16186.29652169 -.00000032  00000-0  10000-3 0  9995
2 33379  65.2733  76.7725 0016206 183.8709 274.4378  2.13101449 60509
COSMOS 2456 (730)       
1 36111U 09070A   16185.74313964  .00000072  00000-0  00000+0 0  9994
2 36111  64.1825 195.4982 0006379 296.0820 254.3201  2.13103005 50995
COSMOS 2457 (733)       
1 36112U 09070B   16185.73179921  .00000072  00000-0  00000+0 0  9997
2 36112  64.1649 195.4250 0006869 189.2146 122.6618  2.13101683 50995
COSMOS 2458 (734)       
1 36113U 09070C   16186.40040520  .00000063  00000-0  10000-3 0  9990
2 36113  64.1702 195.4076 0002585 291.1169 221.2513  2.13102098 51016
COSMOS 2459 (731)       
1 36400U 10007A   16185.55361015 -.00000035  00000-0  10000-3 0  9991
2 36400  65.2519  76.5320 0029385 354.0566 214.6323  2.13102425 49343
COSMOS 2461 (735)       
1 36401U 10007B   16185.41188977 -.00000035  00000-0  10000-3 0  9991
2 36401  65.2457  76.5175 0007088  61.2444 309.2949  2.13102541 49345
COSMOS 2460 (732)       
1 36402U 10007C   16186.49864155 -.00000031  00000-0  10000-3 0  9996
2 36402  65.2356  76.4566 0001423  16.8075 149.2822  2.13101958 49365
COSMOS 2465 (737)       
1 37138U 10041B   16186.40668196 -.00000065  00000-0  00000+0 0  9991
2 37138  64.8447 316.0541 0036018 168.5903  45.4689  2.13094019 45438
COSMOS 2464 (736)       
1 37139U 10041C   16186.44454709 -.00000065  00000-0  00000+0 0  9999
2 37139  64.8510 316.0492 0022353  16.6742  49.8973  2.13102689 45444
COSMOS 2471 (701K)      
1 37372U 11009A   16186.23990229 -.00000032  00000-0  00000+0 0  9996
2 37372  65.2331  76.4155 0007001 239.6932 220.5448  2.13102801 41631
COSMOS 2474 (742)       
1 37829U 11055A   16186.13008138  .00000067  00000-0  00000+0 0  9999
2 37829  64.5065 195.9042 0010701 254.1539  94.4452  2.13102041 36994
COSMOS 2476 (744)       
1 37867U 11064A   16185.35478637  .00000079  00000-0  00000+0 0  9992
2 37867  64.4863 196.0113 0019579 248.4135 271.2486  2.13102119 36338
COSMOS 2477 (745)       
1 37868U 11064B   16186.01541686  .00000069  00000-0  00000+0 0  9991
2 37868  64.4955 196.0297 0017574 249.8142 235.9566  2.13101995 36304
COSMOS 2475 (743)       
1 37869U 11064C   16185.47529404  .00000077  00000-0  00000+0 0  9994
2 37869  64.5029 196.0362 0022941 273.5714 113.9672  2.13102150 36301
COSMOS 2485 (747)       
1 39155U 13019A   16186.13708744  .00000067  00000-0  00000+0 0  9995
2 39155  64.6562 195.9386 0019830 243.6834 201.2578  2.13102153 24825
COSMOS 2492 (754)       
1 39620U 14012A   16186.22806872 -.00000032  00000-0  10000-3 0  9995
2 39620  65.1249  76.4521 0016295 336.2556 211.7571  2.13103550 17773
COSMOS 2500 (755)       
1 40001U 14032A   16185.48878041 -.00000035  00000-0  00000+0 0  9994
2 40001  65.0642  76.5000 0004594 208.9921 355.5839  2.13103087 15976
COSMOS 2501 (702K)      
1 40315U 14075A   16186.50167670 -.00000066  00000-0  00000+0 0  9996
2 40315  64.6156 317.4987 0016908 231.0924 191.6770  2.13101708 12408
COSMOS 2514 (751)       
1 41330U 16008A   16185.18434410 -.00000037  00000-0  00000+0 0  9992
2 41330  64.8634  76.7437 0007867 219.1964 290.8987  2.13103615  3130
COSMOS 2516 (753)       
1 41554U 16032A   16185.86817793 -.00000067  00000-0  00000+0 0  9994
2 41554  64.7983 317.2033 0011041 215.8479 353.6812  2.13101536   752
